[{"OBJECT_NAME":"ONEWEB-0242","OBJECT_ID":"2021-045F","EPOCH":"2026-03-09T15:20:07.457280","MEAN_MOTION":13.15548392,"ECCENTRICITY":0.000154,"INCLINATION":87.8944,"RA_OF_ASC_NODE":279.0575,"ARG_OF_PERICENTER":95.1698,"MEAN_ANOMALY":264.9609,"EPHEMERIS_TYPE":0,"CLASSIFICATION_TYPE":"U","NORAD_CAT_ID":48772,"ELEMENT_SET_NO":999,"REV_AT_EPOCH":23133,"BSTAR":0.00046058,"MEAN_MOTION_DOT":1.86e-6,"MEAN_MOTION_DDOT":0},{"OBJECT_NAME":"THORAD AGENA D DEB","OBJECT_ID":"1970-025BF","EPOCH":"2026-03-09T23:02:48.250752","MEAN_MOTION":13.24473571,"ECCENTRICITY":0.01435524,"INCLINATION":99.7429,"RA_OF_ASC_NODE":87.0906,"ARG_OF_PERICENTER":31.6821,"MEAN_ANOMALY":27.5243,"EPHEMERIS_TYPE":0,"CLASSIFICATION_TYPE":"U","NORAD_CAT_ID":4682,"ELEMENT_SET_NO":999,"REV_AT_EPOCH":69495,"BSTAR":0.0007013194,"MEAN_MOTION_DOT":2.78e-6,"MEAN_MOTION_DDOT":0}]
